[{"OBJECT_NAME":"CMS-01","OBJECT_ID":"2020-099A","EPOCH":"2026-03-14T14:48:38.584800","MEAN_MOTION":1.00270942,"ECCENTRICITY":0.00057745,"INCLINATION":0.0424,"RA_OF_ASC_NODE":107.2805,"ARG_OF_PERICENTER":184.4898,"MEAN_ANOMALY":185.5982,"EPHEMERIS_TYPE":0,"CLASSIFICATION_TYPE":"U","NORAD_CAT_ID":47256,"ELEMENT_SET_NO":999,"REV_AT_EPOCH":1925,"BSTAR":0,"MEAN_MOTION_DOT":-1.65e-6,"MEAN_MOTION_DDOT":0},{"OBJECT_NAME":"TURKSAT 5A","OBJECT_ID":"2021-001A","EPOCH":"2026-03-12T07:01:25.125024","MEAN_MOTION":1.00273019,"ECCENTRICITY":3.21e-5,"INCLINATION":0.0184,"RA_OF_ASC_NODE":105.0454,"ARG_OF_PERICENTER":350.9311,"MEAN_ANOMALY":210.2194,"EPHEMERIS_TYPE":0,"CLASSIFICATION_TYPE":"U","NORAD_CAT_ID":47306,"ELEMENT_SET_NO":999,"REV_AT_EPOCH":1899,"BSTAR":0,"MEAN_MOTION_DOT":1.55e-6,"MEAN_MOTION_DDOT":0},{"OBJECT_NAME":"FALCON 9 R/B","OBJECT_ID":"2021-001B","EPOCH":"2026-03-13T21:17:39.143904","MEAN_MOTION":1.65137423,"ECCENTRICITY":0.77764747,"INCLINATION":15.9277,"RA_OF_ASC_NODE":214.2897,"ARG_OF_PERICENTER":343.8866,"MEAN_ANOMALY":1.0201,"EPHEMERIS_TYPE":0,"CLASSIFICATION_TYPE":"U","NORAD_CAT_ID":47307,"ELEMENT_SET_NO":999,"REV_AT_EPOCH":2858,"BSTAR":0.0012621125,"MEAN_MOTION_DOT":3.24e-6,"MEAN_MOTION_DDOT":0},{"OBJECT_NAME":"TIANTONG-1 3","OBJECT_ID":"2021-003A","EPOCH":"2026-03-14T14:01:55.388640","MEAN_MOTION":1.002736,"ECCENTRICITY":0.00032772,"INCLINATION":1.8426,"RA_OF_ASC_NODE":333.6435,"ARG_OF_PERICENTER":23.2978,"MEAN_ANOMALY":107.2678,"EPHEMERIS_TYPE":0,"CLASSIFICATION_TYPE":"U","NORAD_CAT_ID":47321,"ELEMENT_SET_NO":999,"REV_AT_EPOCH":1901,"BSTAR":0,"MEAN_MOTION_DOT":-1.55e-6,"MEAN_MOTION_DDOT":0},{"OBJECT_NAME":"TJS-6","OBJECT_ID":"2021-010A","EPOCH":"2026-03-14T14:29:37.184640","MEAN_MOTION":1.00274196,"ECCENTRICITY":0.00036019,"INCLINATION":0.3543,"RA_OF_ASC_NODE":90.2756,"ARG_OF_PERICENTER":295.9229,"MEAN_ANOMALY":181.9276,"EPHEMERIS_TYPE":0,"CLASSIFICATION_TYPE":"U","NORAD_CAT_ID":47613,"ELEMENT_SET_NO":999,"REV_AT_EPOCH":1886,"BSTAR":0,"MEAN_MOTION_DOT":4.3e-7,"MEAN_MOTION_DDOT":0},{"OBJECT_NAME":"ARKTIKA-M 1","OBJECT_ID":"2021-016A","EPOCH":"2026-03-13T18:55:45.599808","MEAN_MOTION":2.00619294,"ECCENTRICITY":0.7248342,"INCLINATION":63.2042,"RA_OF_ASC_NODE":71.2738,"ARG_OF_PERICENTER":269.5023,"MEAN_ANOMALY":15.1596,"EPHEMERIS_TYPE":0,"CLASSIFICATION_TYPE":"U","NORAD_CAT_ID":47719,"ELEMENT_SET_NO":999,"REV_AT_EPOCH":3687,"BSTAR":0,"MEAN_MOTION_DOT":-1.08e-6,"MEAN_MOTION_DDOT":0},{"OBJECT_NAME":"FREGAT R/B","OBJECT_ID":"2021-016B","EPOCH":"2026-03-13T23:21:48.576096","MEAN_MOTION":1.98923262,"ECCENTRICITY":0.73701534,"INCLINATION":63.2254,"RA_OF_ASC_NODE":64.0185,"ARG_OF_PERICENTER":267.2141,"MEAN_ANOMALY":14.9582,"EPHEMERIS_TYPE":0,"CLASSIFICATION_TYPE":"U","NORAD_CAT_ID":47720,"ELEMENT_SET_NO":999,"REV_AT_EPOCH":3654,"BSTAR":0,"MEAN_MOTION_DOT":-1.3e-6,"MEAN_MOTION_DDOT":0},{"OBJECT_NAME":"SHIYAN-9 (SY-9)","OBJECT_ID":"2021-019A","EPOCH":"2026-03-10T14:59:28.108032","MEAN_MOTION":1.00277331,"ECCENTRICITY":0.00152777,"INCLINATION":16.7428,"RA_OF_ASC_NODE":303.712,"ARG_OF_PERICENTER":26.8901,"MEAN_ANOMALY":209.4182,"EPHEMERIS_TYPE":0,"CLASSIFICATION_TYPE":"U","NORAD_CAT_ID":47851,"ELEMENT_SET_NO":999,"REV_AT_EPOCH":2314,"BSTAR":0,"MEAN_MOTION_DOT":-2.22e-6,"MEAN_MOTION_DDOT":0},{"OBJECT_NAME":"SL-6 DEB","OBJECT_ID":"1980-063E","EPOCH":"2026-03-09T03:14:01.447008","MEAN_MOTION":2.11465598,"ECCENTRICITY":0.71218689,"INCLINATION":63.9141,"RA_OF_ASC_NODE":358.8451,"ARG_OF_PERICENTER":284.4551,"MEAN_ANOMALY":11.823,"EPHEMERIS_TYPE":0,"CLASSIFICATION_TYPE":"U","NORAD_CAT_ID":48261,"ELEMENT_SET_NO":999,"REV_AT_EPOCH":9489,"BSTAR":-0.003518508,"MEAN_MOTION_DOT":2.03e-6,"MEAN_MOTION_DDOT":0},{"OBJECT_NAME":"SL-6 DEB","OBJECT_ID":"1980-063F","EPOCH":"2026-03-08T06:32:56.363712","MEAN_MOTION":2.05116896,"ECCENTRICITY":0.72214528,"INCLINATION":63.5987,"RA_OF_ASC_NODE":17.366,"ARG_OF_PERICENTER":280.8706,"MEAN_ANOMALY":335.6868,"EPHEMERIS_TYPE":0,"CLASSIFICATION_TYPE":"U","NORAD_CAT_ID":48262,"ELEMENT_SET_NO":999,"REV_AT_EPOCH":9209,"BSTAR":0.0010175708,"MEAN_MOTION_DOT":-1.216e-5,"MEAN_MOTION_DDOT":0},{"OBJECT_NAME":"COSMOS 1367 DEB","OBJECT_ID":"1982-045E","EPOCH":"2026-03-13T03:17:00.815136","MEAN_MOTION":2.06312248,"ECCENTRICITY":0.72051418,"INCLINATION":64.1527,"RA_OF_ASC_NODE":64.1804,"ARG_OF_PERICENTER":13.3916,"MEAN_ANOMALY":358.4202,"EPHEMERIS_TYPE":0,"CLASSIFICATION_TYPE":"U","NORAD_CAT_ID":48266,"ELEMENT_SET_NO":999,"REV_AT_EPOCH":4564,"BSTAR":0.019061553,"MEAN_MOTION_DOT":6.76e-6,"MEAN_MOTION_DDOT":0},{"OBJECT_NAME":"ARIANE 3 DEB","OBJECT_ID":"1984-081G","EPOCH":"2026-03-14T10:15:16.553088","MEAN_MOTION":2.08089435,"ECCENTRICITY":0.70952538,"INCLINATION":6.1195,"RA_OF_ASC_NODE":26.9927,"ARG_OF_PERICENTER":310.9285,"MEAN_ANOMALY":6.5916,"EPHEMERIS_TYPE":0,"CLASSIFICATION_TYPE":"U","NORAD_CAT_ID":48347,"ELEMENT_SET_NO":999,"REV_AT_EPOCH":9367,"BSTAR":0,"MEAN_MOTION_DOT":-3.8e-6,"MEAN_MOTION_DDOT":0},{"OBJECT_NAME":"SBIRS GEO-5 (USA 315)","OBJECT_ID":"2021-042A","EPOCH":"2026-03-14T02:06:38.257920","MEAN_MOTION":1.00272085,"ECCENTRICITY":0.00012142,"INCLINATION":5.2254,"RA_OF_ASC_NODE":328.3936,"ARG_OF_PERICENTER":27.8061,"MEAN_ANOMALY":300.9489,"EPHEMERIS_TYPE":0,"CLASSIFICATION_TYPE":"U","NORAD_CAT_ID":48618,"ELEMENT_SET_NO":999,"REV_AT_EPOCH":1781,"BSTAR":0,"MEAN_MOTION_DOT":-2.66e-6,"MEAN_MOTION_DDOT":0},{"OBJECT_NAME":"FENGYUN 4B","OBJECT_ID":"2021-047A","EPOCH":"2026-03-14T16:18:00.898848","MEAN_MOTION":1.00273569,"ECCENTRICITY":0.00080178,"INCLINATION":0.2166,"RA_OF_ASC_NODE":77.5974,"ARG_OF_PERICENTER":296.4971,"MEAN_ANOMALY":147.362,"EPHEMERIS_TYPE":0,"CLASSIFICATION_TYPE":"U","NORAD_CAT_ID":48808,"ELEMENT_SET_NO":999,"REV_AT_EPOCH":1762,"BSTAR":0,"MEAN_MOTION_DOT":-3.31e-6,"MEAN_MOTION_DDOT":0},{"OBJECT_NAME":"SXM-8","OBJECT_ID":"2021-049A","EPOCH":"2026-03-13T09:35:37.335552","MEAN_MOTION":1.00270921,"ECCENTRICITY":0.00046105,"INCLINATION":0.0324,"RA_OF_ASC_NODE":51.3663,"ARG_OF_PERICENTER":356.5126,"MEAN_ANOMALY":181.8973,"EPHEMERIS_TYPE":0,"CLASSIFICATION_TYPE":"U","NORAD_CAT_ID":48838,"ELEMENT_SET_NO":999,"REV_AT_EPOCH":1763,"BSTAR":0,"MEAN_MOTION_DOT":-2.05e-6,"MEAN_MOTION_DDOT":0},{"OBJECT_NAME":"TIANLIAN 1-05","OBJECT_ID":"2021-063A","EPOCH":"2026-03-14T13:43:27.160032","MEAN_MOTION":1.00272954,"ECCENTRICITY":0.00040369,"INCLINATION":1.348,"RA_OF_ASC_NODE":81.4746,"ARG_OF_PERICENTER":236.8453,"MEAN_ANOMALY":76.4695,"EPHEMERIS_TYPE":0,"CLASSIFICATION_TYPE":"U","NORAD_CAT_ID":49011,"ELEMENT_SET_NO":999,"REV_AT_EPOCH":1712,"BSTAR":0,"MEAN_MOTION_DOT":1.08e-6,"MEAN_MOTION_DDOT":0},{"OBJECT_NAME":"STAR ONE D2","OBJECT_ID":"2021-069A","EPOCH":"2026-03-14T13:18:14.577696","MEAN_MOTION":1.0026863,"ECCENTRICITY":8.598e-5,"INCLINATION":0.0269,"RA_OF_ASC_NODE":156.6619,"ARG_OF_PERICENTER":187.3862,"MEAN_ANOMALY":317.6043,"EPHEMERIS_TYPE":0,"CLASSIFICATION_TYPE":"U","NORAD_CAT_ID":49055,"ELEMENT_SET_NO":999,"REV_AT_EPOCH":1698,"BSTAR":0,"MEAN_MOTION_DOT":0,"MEAN_MOTION_DDOT":0}]
