CMS-01                  
1 47256U 20099A   26073.61711325 -.00000165  00000+0  00000+0 0  9999
2 47256   0.0424 107.2805 0005774 184.4898 185.5982  1.00270942 19254
TURKSAT 5A              
1 47306U 21001A   26071.29265191  .00000155  00000+0  00000+0 0  9994
2 47306   0.0184 105.0454 0000321 350.9311 210.2194  1.00273019 18991
FALCON 9 R/B            
1 47307U 21001B   26072.88725861  .00000324  00000+0  12621-2 0  9999
2 47307  15.9277 214.2897 7776474 343.8866   1.0201  1.65137423 28586
TIANTONG-1 3            
1 47321U 21003A   26073.58466885 -.00000155  00000+0  00000+0 0  9991
2 47321   1.8426 333.6435 0003277  23.2978 107.2678  1.00273600 19018
TJS-6                   
1 47613U 21010A   26073.60390260  .00000043  00000+0  00000+0 0  9994
2 47613   0.3543  90.2756 0003601 295.9229 181.9276  1.00274196 18862
ARKTIKA-M 1             
1 47719U 21016A   26072.78872222 -.00000108  00000+0  00000+0 0  9991
2 47719  63.2042  71.2738 7248342 269.5023  15.1596  2.00619294 36876
FREGAT R/B              
1 47720U 21016B   26072.97347889 -.00000130  00000+0  00000+0 0  9995
2 47720  63.2254  64.0185 7370153 267.2141  14.9582  1.98923262 36546
SHIYAN-9 (SY-9)         
1 47851U 21019A   26069.62463088 -.00000222  00000+0  00000+0 0  9993
2 47851  16.7428 303.7120 0015277  26.8901 209.4182  1.00277331 23149
SL-6 DEB                
1 48261U 80063E   26068.13473897  .00000203  00000+0 -35185-2 0  9991
2 48261  63.9141 358.8451 7121868 284.4551  11.8230  2.11465598 94899
SL-6 DEB                
1 48262U 80063F   26067.27287458 -.00001216  00000+0  10176-2 0  9990
2 48262  63.5987  17.3660 7221452 280.8706 335.6868  2.05116896 92096
COSMOS 1367 DEB         
1 48266U 82045E   26072.13681499  .00000676  00000+0  19062-1 0  9990
2 48266  64.1527  64.1804 7205141  13.3916 358.4202  2.06312248 45640
ARIANE 3 DEB            
1 48347U 84081G   26073.42727492 -.00000380  00000+0  00000+0 0  9992
2 48347   6.1195  26.9927 7095253 310.9285   6.5916  2.08089435 93675
SBIRS GEO-5 (USA 315)   
1 48618U 21042A   26073.08794280 -.00000266  00000+0  00000+0 0  9995
2 48618   5.2254 328.3936 0001214  27.8061 300.9489  1.00272085 17818
FENGYUN 4B              
1 48808U 21047A   26073.67917707 -.00000331  00000+0  00000+0 0  9990
2 48808   0.2166  77.5974 0008017 296.4971 147.3620  1.00273569 17620
SXM-8                   
1 48838U 21049A   26072.39973768 -.00000205  00000+0  00000+0 0  9992
2 48838   0.0324  51.3663 0004610 356.5126 181.8973  1.00270921 17631
TIANLIAN 1-05           
1 49011U 21063A   26073.57184213  .00000108  00000+0  00000+0 0  9993
2 49011   1.3480  81.4746 0004036 236.8453  76.4695  1.00272954 17125
STAR ONE D2             
1 49055U 21069A   26073.55433539  .00000000  00000+0  00000+0 0  9994
2 49055   0.0269 156.6619 0000859 187.3862 317.6043  1.00268630 16987
